$$SOE
2460147.500000000, A.D. 2023-Jul-22 00:00:00.0000, -4.384708396976257E+09, -2.517177671313105E+09, 1.364260151353800E+09,
2460154.500000000, A.D. 2023-Jul-29 00:00:00.0000, -4.382433732950560E+09, -2.519906920335159E+09, 1.364232771101153E+09,
2460161.500000000, A.D. 2023-Aug-05 00:00:00.0000, -4.380157669774824E+09, -2.522635341997505E+09, 1.364204931439571E+09,
2460168.500000000, A.D. 2023-Aug-12 00:00:00.0000, -4.377880210010363E+09, -2.525362937047508E+09, 1.364176632370030E+09,
2460175.500000000, A.D. 2023-Aug-19 00:00:00.0000, -4.375601355914970E+09, -2.528089706720994E+09, 1.364147873863563E+09,
2460182.500000000, A.D. 2023-Aug-26 00:00:00.0000, -4.373321109442179E+09, -2.530815652652265E+09, 1.364118655867340E+09,
2460189.500000000, A.D. 2023-Sep-02 00:00:00.0000, -4.371039472263513E+09, -2.533540776855406E+09, 1.364088978306088E+09,
2460196.500000000, A.D. 2023-Sep-09 00:00:00.0000, -4.368756445777118E+09, -2.536265081818149E+09, 1.364058841072149E+09,
2460203.500000000, A.D. 2023-Sep-16 00:00:00.0000, -4.366472030934345E+09, -2.538988570766253E+09, 1.364028243984044E+09,
2460210.500000000, A.D. 2023-Sep-23 00:00:00.0000, -4.364186227467863E+09, -2.541711247811658E+09, 1.363997186698865E+09,
2460217.500000000, A.D. 2023-Sep-30 00:00:00.0000, -4.361899032860885E+09, -2.544433116793666E+09, 1.363965668707029E+09,
2460224.500000000, A.D. 2023-Oct-07 00:00:00.0000, -4.359610443411238E+09, -2.547154179355981E+09, 1.363933689581069E+09,
2460231.500000000, A.D. 2023-Oct-14 00:00:00.0000, -4.357320456350381E+09, -2.549874435572784E+09, 1.363901249112474E+09,
2460238.500000000, A.D. 2023-Oct-21 00:00:00.0000, -4.355029069788764E+09, -2.552593885521109E+09, 1.363868347171621E+09,
2460245.500000000, A.D. 2023-Oct-28 00:00:00.0000, -4.352736281911883E+09, -2.555312529539407E+09, 1.363834983606367E+09,
2460252.500000000, A.D. 2023-Nov-04 00:00:00.0000, -4.350442090677075E+09, -2.558030367942701E+09, 1.363801158231263E+09,
2460259.500000000, A.D. 2023-Nov-11 00:00:00.0000, -4.348146493833467E+09, -2.560747400794169E+09, 1.363766870842322E+09,
2460266.500000000, A.D. 2023-Nov-18 00:00:00.0000, -4.345849489045605E+09, -2.563463627797509E+09, 1.363732121232239E+09,
2460273.500000000, A.D. 2023-Nov-25 00:00:00.0000, -4.343551074047907E+09, -2.566179048287499E+09, 1.363696909201418E+09,
2460280.500000000, A.D. 2023-Dec-02 00:00:00.0000, -4.341251246801788E+09, -2.568893661329956E+09, 1.363661234561508E+09,
2460287.500000000, A.D. 2023-Dec-09 00:00:00.0000, -4.338950005577602E+09, -2.571607465990001E+09, 1.363625097119595E+09,
2460294.500000000, A.D. 2023-Dec-16 00:00:00.0000, -4.336647348673865E+09, -2.574320461756076E+09, 1.363588496617750E+09,
2460301.500000000, A.D. 2023-Dec-23 00:00:00.0000, -4.334343273425322E+09, -2.577032648432248E+09, 1.363551432652099E+09,
2460308.500000000, A.D. 2023-Dec-30 00:00:00.0000, -4.332037775840047E+09, -2.579744024449568E+09, 1.363513904779987E+09,
2460315.500000000, A.D. 2024-Jan-06 00:00:00.0000, -4.329730852638064E+09, -2.582454585957187E+09, 1.363475912784702E+09,
2460322.500000000, A.D. 2024-Jan-13 00:00:00.0000, -4.327422502518702E+09, -2.585164328500134E+09, 1.363437456658879E+09,
2460329.500000000, A.D. 2024-Jan-20 00:00:00.0000, -4.325112725433167E+09, -2.587873248199185E+09, 1.363398536446153E+09,
2460336.500000000, A.D. 2024-Jan-27 00:00:00.0000, -4.322801521891053E+09, -2.590581341780611E+09, 1.363359152180224E+09,
2460343.500000000, A.D. 2024-Feb-03 00:00:00.0000, -4.320488892729146E+09, -2.593288606404452E+09, 1.363319303882845E+09,
2460350.500000000, A.D. 2024-Feb-10 00:00:00.0000, -4.318174839065196E+09, -2.595995039582380E+09, 1.363278991571297E+09,
2460357.500000000, A.D. 2024-Feb-17 00:00:00.0000, -4.315859362297914E+09, -2.598700639177300E+09, 1.363238215263099E+09,
2460364.500000000, A.D. 2024-Feb-24 00:00:00.0000, -4.313542464117297E+09, -2.601405403469824E+09, 1.363196974975716E+09,
2460371.500000000, A.D. 2024-Mar-02 00:00:00.0000, -4.311224146495907E+09, -2.604109331324199E+09, 1.363155270715819E+09,
2460378.500000000, A.D. 2024-Mar-09 00:00:00.0000, -4.308904411522295E+09, -2.606812422516497E+09, 1.363113102440126E+09,
2460385.500000000, A.D. 2024-Mar-16 00:00:00.0000, -4.306583260681290E+09, -2.609514678027847E+09, 1.363070469967661E+09,
2460392.500000000, A.D. 2024-Mar-23 00:00:00.0000, -4.304260693684699E+09, -2.612216099193622E+09, 1.363027372943497E+09,
2460399.500000000, A.D. 2024-Mar-30 00:00:00.0000, -4.301936709093582E+09, -2.614916685735403E+09, 1.362983811057366E+09,
2460406.500000000, A.D. 2024-Apr-06 00:00:00.0000, -4.299611306476071E+09, -2.617616436043328E+09, 1.362939784218414E+09,
2460413.500000000, A.D. 2024-Apr-13 00:00:00.0000, -4.297284486549583E+09, -2.620315348872389E+09, 1.362895292428756E+09,
2460420.500000000, A.D. 2024-Apr-20 00:00:00.0000, -4.294956250259598E+09, -2.623013423776030E+09, 1.362850335661899E+09,
2460427.500000000, A.D. 2024-Apr-27 00:00:00.0000, -4.292626598311996E+09, -2.625710660838426E+09, 1.362804913839366E+09,
2460434.500000000, A.D. 2024-May-04 00:00:00.0000, -4.290295531071066E+09, -2.628407060408755E+09, 1.362759026840007E+09,
2460441.500000000, A.D. 2024-May-11 00:00:00.0000, -4.287963048584823E+09, -2.631102622939057E+09, 1.362712674511940E+09,
2460448.500000000, A.D. 2024-May-18 00:00:00.0000, -4.285629150655652E+09, -2.633797348903820E+09, 1.362665856681499E+09,
2460455.500000000, A.D. 2024-May-25 00:00:00.0000, -4.283293836931568E+09, -2.636491238808075E+09, 1.362618573156522E+09,
2460462.500000000, A.D. 2024-Jun-01 00:00:00.0000, -4.280957106958244E+09, -2.639184293341111E+09, 1.362570823714007E+09,
2460469.500000000, A.D. 2024-Jun-08 00:00:00.0000, -4.278618959945430E+09, -2.641876513698456E+09, 1.362522608047922E+09,
2460476.500000000, A.D. 2024-Jun-15 00:00:00.0000, -4.276279393848264E+09, -2.644567901526751E+09, 1.362473925685321E+09,
2460483.500000000, A.D. 2024-Jun-22 00:00:00.0000, -4.273938404768682E+09, -2.647258457316148E+09, 1.362424776059288E+09,
2460490.500000000, A.D. 2024-Jun-29 00:00:00.0000, -4.271595988798557E+09, -2.649948179060844E+09, 1.362375158784746E+09,
2460497.500000000, A.D. 2024-Jul-06 00:00:00.0000, -4.269252143659558E+09, -2.652637063658712E+09, 1.362325073692824E+09,
2460504.500000000, A.D. 2024-Jul-13 00:00:00.0000, -4.266906868190498E+09, -2.655325108225834E+09, 1.362274520675925E+09,
2460511.500000000, A.D. 2024-Jul-20 00:00:00.0000, -4.264560161667797E+09, -2.658012310177207E+09, 1.362223499619596E+09,
2460518.500000000, A.D. 2024-Jul-27 00:00:00.0000, -4.262212023615079E+09, -2.660698667033022E+09, 1.362172010402971E+09,
2460525.500000000, A.D. 2024-Aug-03 00:00:00.0000, -4.259862453828965E+09, -2.663384176325366E+09, 1.362120052912042E+09,
2460532.500000000, A.D. 2024-Aug-10 00:00:00.0000, -4.257511452455270E+09, -2.666068835609627E+09, 1.362067627050040E+09,
2460539.500000000, A.D. 2024-Aug-17 00:00:00.0000, -4.255159020068308E+09, -2.668752642558570E+09, 1.362014732742183E+09,
2460546.500000000, A.D. 2024-Aug-24 00:00:00.0000, -4.252805157725440E+09, -2.671435595160994E+09, 1.361961369930160E+09,
2460553.500000000, A.D. 2024-Aug-31 00:00:00.0000, -4.250449866881257E+09, -2.674117692086066E+09, 1.361907538540482E+09,
2460560.500000000, A.D. 2024-Sep-07 00:00:00.0000, -4.248093148795892E+09, -2.676798933086627E+09, 1.361853238403229E+09,
2460567.500000000, A.D. 2024-Sep-14 00:00:00.0000, -4.245735003352228E+09, -2.679479318445275E+09, 1.361798469194518E+09,
2460574.500000000, A.D. 2024-Sep-21 00:00:00.0000, -4.243375429310814E+09, -2.682158847050417E+09, 1.361743230622283E+09,
2460581.500000000, A.D. 2024-Sep-28 00:00:00.0000, -4.241014426490004E+09, -2.684837516329774E+09, 1.361687522636116E+09,
2460588.500000000, A.D. 2024-Oct-05 00:00:00.0000, -4.238651996201585E+09, -2.687515324039511E+09, 1.361631345324593E+09,
2460595.500000000, A.D. 2024-Oct-12 00:00:00.0000, -4.236288140302569E+09, -2.690192268928781E+09, 1.361574698776586E+09,
2460602.500000000, A.D. 2024-Oct-19 00:00:00.0000, -4.233922860614007E+09, -2.692868350550331E+09, 1.361517583044984E+09,
2460609.500000000, A.D. 2024-Oct-26 00:00:00.0000, -4.231556158739211E+09, -2.695543569018405E+09, 1.361459998150284E+09,
2460616.500000000, A.D. 2024-Nov-02 00:00:00.0000, -4.229188036023940E+09, -2.698217924862071E+09, 1.361401944088319E+09,
2460623.500000000, A.D. 2024-Nov-09 00:00:00.0000, -4.226818493561795E+09, -2.700891418952994E+09, 1.361343420834993E+09,
2460630.500000000, A.D. 2024-Nov-16 00:00:00.0000, -4.224447532218790E+09, -2.703564052507110E+09, 1.361284428345713E+09,
2460637.500000000, A.D. 2024-Nov-23 00:00:00.0000, -4.222075152630002E+09, -2.706235827209797E+09, 1.361224966541205E+09,
2460644.500000000, A.D. 2024-Nov-30 00:00:00.0000, -4.219701354959884E+09, -2.708906745506954E+09, 1.361165035257195E+09,
2460651.500000000, A.D. 2024-Dec-07 00:00:00.0000, -4.217326138006684E+09, -2.711576810641129E+09, 1.361104634153972E+09,
2460658.500000000, A.D. 2024-Dec-14 00:00:00.0000, -4.214949498339508E+09, -2.714246025208549E+09, 1.361043762749133E+09,
2460665.500000000, A.D. 2024-Dec-21 00:00:00.0000, -4.212571431786508E+09, -2.716914389477688E+09, 1.360982420684923E+09,
2460672.500000000, A.D. 2024-Dec-28 00:00:00.0000, -4.210191935301690E+09, -2.719581902436610E+09, 1.360920607806940E+09,
2460679.500000000, A.D. 2025-Jan-04 00:00:00.0000, -4.207811006613033E+09, -2.722248563192851E+09, 1.360858324010362E+09,
2460686.500000000, A.D. 2025-Jan-11 00:00:00.0000, -4.205428643473097E+09, -2.724914371065956E+09, 1.360795569156633E+09,
2460693.500000000, A.D. 2025-Jan-18 00:00:00.0000, -4.203044843428942E+09, -2.727579325291436E+09, 1.360732343069863E+09,
2460700.500000000, A.D. 2025-Jan-25 00:00:00.0000, -4.200659603867730E+09, -2.730243424810697E+09, 1.360668645552110E+09,
2460707.500000000, A.D. 2025-Feb-01 00:00:00.0000, -4.198272922148376E+09, -2.732906668177048E+09, 1.360604476397942E+09,
$$EOE